{
  "links" : {
    "next" : "https://api.nasa.gov/neo/rest/v1/feed?start_date=2006-03-16&end_date=2006-03-16&detailed=true&api_key=t0TVs3DtDT2H8Oy2Zy8m2eVrNsAVKAexjcZXUckd",
    "prev" : "https://api.nasa.gov/neo/rest/v1/feed?start_date=2006-03-14&end_date=2006-03-14&detailed=true&api_key=t0TVs3DtDT2H8Oy2Zy8m2eVrNsAVKAexjcZXUckd",
    "self" : "https://api.nasa.gov/neo/rest/v1/feed?start_date=2006-03-15&end_date=2006-03-15&detailed=true&api_key=t0TVs3DtDT2H8Oy2Zy8m2eVrNsAVKAexjcZXUckd"
  },
  "element_count" : 8,
  "near_earth_objects" : {
    "2006-03-15" : [ {
      "links" : {
        "self" : "https://api.nasa.gov/neo/rest/v1/neo/3714454?api_key=t0TVs3DtDT2H8Oy2Zy8m2eVrNsAVKAexjcZXUckd"
      },
      "neo_reference_id" : "3714454",
      "name" : "(2015 FS117)",
      "nasa_jpl_url" : "http://ssd.jpl.nasa.gov/sbdb.cgi?sstr=3714454",
      "absolute_magnitude_h" : 21.9,
      "estimated_diameter" : {
        "kilometers" : {
          "estimated_diameter_min" : 0.1108038821,
          "estimated_diameter_max" : 0.2477650126
        },
        "meters" : {
          "estimated_diameter_min" : 110.8038821264,
          "estimated_diameter_max" : 247.7650126055
        },
        "miles" : {
          "estimated_diameter_min" : 0.068850319,
          "estimated_diameter_max" : 0.1539539936
        },
        "feet" : {
          "estimated_diameter_min" : 363.5298086356,
          "estimated_diameter_max" : 812.8773639568
        }
      },
      "is_potentially_hazardous_asteroid" : true,
      "close_approach_data" : [ {
        "close_approach_date" : "2006-03-15",
        "epoch_date_close_approach" : 1142409600000,
        "relative_velocity" : {
          "kilometers_per_second" : "14.513728327",
          "kilometers_per_hour" : "52249.421977267",
          "miles_per_hour" : "32465.7588947079"
        },
        "miss_distance" : {
          "astronomical" : "0.3709957398",
          "lunar" : "144.3173370361",
          "kilometers" : "55500172",
          "miles" : "34486208"
        },
        "orbiting_body" : "Earth"
      } ],
      "orbital_data" : {
        "orbit_id" : "5",
        "orbit_determination_date" : "2017-04-06 08:34:48",
        "orbit_uncertainty" : "7",
        "minimum_orbit_intersection" : ".0363997",
        "jupiter_tisserand_invariant" : "5.198",
        "epoch_osculation" : "2458000.5",
        "eccentricity" : ".2544339570212125",
        "semi_major_axis" : "1.186559553093317",
        "inclination" : "28.37579851065576",
        "ascending_node_longitude" : "356.5926372078096",
        "orbital_period" : "472.0986268048352",
        "perihelion_distance" : ".8846585107584628",
        "perihelion_argument" : "54.15478860583174",
        "aphelion_distance" : "1.488460595428171",
        "perihelion_time" : "2457918.411365851475",
        "mean_anomaly" : "62.59689525783301",
        "mean_motion" : ".7625525251714477",
        "equinox" : "J2000"
      }
    }, {
      "links" : {
        "self" : "https://api.nasa.gov/neo/rest/v1/neo/3745995?api_key=t0TVs3DtDT2H8Oy2Zy8m2eVrNsAVKAexjcZXUckd"
      },
      "neo_reference_id" : "3745995",
      "name" : "(2016 EO84)",
      "nasa_jpl_url" : "http://ssd.jpl.nasa.gov/sbdb.cgi?sstr=3745995",
      "absolute_magnitude_h" : 22.3,
      "estimated_diameter" : {
        "kilometers" : {
          "estimated_diameter_min" : 0.0921626549,
          "estimated_diameter_max" : 0.2060819612
        },
        "meters" : {
          "estimated_diameter_min" : 92.1626548503,
          "estimated_diameter_max" : 206.0819612321
        },
        "miles" : {
          "estimated_diameter_min" : 0.057267201,
          "estimated_diameter_max" : 0.1280533543
        },
        "feet" : {
          "estimated_diameter_min" : 302.370924539,
          "estimated_diameter_max" : 676.1219416887
        }
      },
      "is_potentially_hazardous_asteroid" : false,
      "close_approach_data" : [ {
        "close_approach_date" : "2006-03-15",
        "epoch_date_close_approach" : 1142409600000,
        "relative_velocity" : {
          "kilometers_per_second" : "30.0041988993",
          "kilometers_per_hour" : "108015.1160376348",
          "miles_per_hour" : "67116.3925179404"
        },
        "miss_distance" : {
          "astronomical" : "0.4372540823",
          "lunar" : "170.0918273926",
          "kilometers" : "65412280",
          "miles" : "40645304"
        },
        "orbiting_body" : "Earth"
      } ],
      "orbital_data" : {
        "orbit_id" : "14",
        "orbit_determination_date" : "2017-04-06 08:27:40",
        "orbit_uncertainty" : "5",
        "minimum_orbit_intersection" : ".0397056",
        "jupiter_tisserand_invariant" : "6.904",
        "epoch_osculation" : "2458000.5",
        "eccentricity" : ".5478428245474938",
        "semi_major_axis" : ".8325942093649454",
        "inclination" : "12.07271970992136",
        "ascending_node_longitude" : "350.1835139334025",
        "orbital_period" : "277.490746961844",
        "perihelion_distance" : ".3764634460045663",
        "perihelion_argument" : "29.80164265026582",
        "aphelion_distance" : "1.288724972725324",
        "perihelion_time" : "2457922.306752450901",
        "mean_anomaly" : "101.4432712653532",
        "mean_motion" : "1.29734055618619",
        "equinox" : "J2000"
      }
    } ]
  }
}